start=new Date('2022-06-09T00:00:00.000Z').valueOf();
sats=[{"MEAN_MOTION_DDOT":"0.0000000000000","SEMIMAJOR_AXIS":"6917.875","RCS_SIZE":"LARGE","MEAN_MOTION_DOT":"0.00001372","RA_OF_ASC_NODE":"188.9033","EPOCH":"2022-06-08T18:35:01.153824","ELEMENT_SET_NO":"999","TLE_LINE1":"1 50805U 22001C   22159.77431891  .00001372  00000-0  10431-3 0  9997","OBJECT_NAME":"STARLINK-3333","BSTAR":"0.00010431000000","APOAPSIS":"541.398","MEAN_ELEMENT_THEORY":"SGP4","OBJECT_ID":"2022-001C","REF_FRAME":"TEME","DECAY_DATE":null,"REV_AT_EPOCH":"2500","CLASSIFICATION_TYPE":"U","FILE":"3486120","PERIOD":"95.437","ARG_OF_PERICENTER":"44.0018","COUNTRY_CODE":"US","GP_ID":"205642951","SITE":"AFETR","CENTER_NAME":"EARTH","TLE_LINE2":"2 50805  53.2164 188.9033 0002397  44.0018 316.1165 15.08841711 25007","INCLINATION":"53.2164","OBJECT_TYPE":"PAYLOAD","LAUNCH_DATE":"2022-01-06","EPHEMERIS_TYPE":"0","MEAN_MOTION":"15.08841711","ECCENTRICITY":"0.00023970","MEAN_ANOMALY":"316.1165","PERIAPSIS":"538.082","NORAD_CAT_ID":"50805","TIME_SYSTEM":"UTC"},{"OBJECT_ID":"2022-001D","DECAY_DATE":null,"REF_FRAME":"TEME","REV_AT_EPOCH":"2367","CLASSIFICATION_TYPE":"U","FILE":"3485745","ARG_OF_PERICENTER":"46.1727","PERIOD":"95.438","COUNTRY_CODE":"US","MEAN_MOTION_DDOT":"0.0000000000000","RCS_SIZE":"LARGE","MEAN_MOTION_DOT":"-0.00000841","SEMIMAJOR_AXIS":"6917.906","EPOCH":"2022-06-08T08:57:24.200064","RA_OF_ASC_NODE":"190.7091","ELEMENT_SET_NO":"999","TLE_LINE1":"1 50806U 22001D   22159.37319676 -.00000841  00000-0 -34744-4 0  9996","OBJECT_NAME":"STARLINK-3335","BSTAR":"-0.00003474400000","APOAPSIS":"541.309","MEAN_ELEMENT_THEORY":"SGP4","MEAN_MOTION":"15.08831622","ECCENTRICITY":"0.00022230","PERIAPSIS":"538.233","MEAN_ANOMALY":"313.9449","NORAD_CAT_ID":"50806","TIME_SYSTEM":"UTC","GP_ID":"205635540","SITE":"AFETR","CENTER_NAME":"EARTH","TLE_LINE2":"2 50806  53.2150 190.7091 0002223  46.1727 313.9449 15.08831622 23677","INCLINATION":"53.2150","OBJECT_TYPE":"PAYLOAD","LAUNCH_DATE":"2022-01-06","EPHEMERIS_TYPE":"0"},{"OBJECT_TYPE":"PAYLOAD","INCLINATION":"53.2189","EPHEMERIS_TYPE":"0","LAUNCH_DATE":"2022-01-06","SITE":"AFETR","GP_ID":"205636291","TLE_LINE2":"2 50807  53.2189 190.1882 0002384  38.0191 322.0969 15.08825660 23690","CENTER_NAME":"EARTH","NORAD_CAT_ID":"50807","TIME_SYSTEM":"UTC","ECCENTRICITY":"0.00023840","MEAN_MOTION":"15.08825660","PERIAPSIS":"538.140","MEAN_ANOMALY":"322.0969","BSTAR":"0.00017746000000","OBJECT_NAME":"STARLINK-3353","MEAN_ELEMENT_THEORY":"SGP4","APOAPSIS":"541.438","ELEMENT_SET_NO":"999","RA_OF_ASC_NODE":"190.1882","RCS_SIZE":"LARGE","SEMIMAJOR_AXIS":"6917.924","EPOCH":"2022-06-08T11:46:58.836864","MEAN_MOTION_DOT":"0.00002536","MEAN_MOTION_DDOT":"0.0000000000000","TLE_LINE1":"1 50807U 22001E   22159.49095876  .00002536  00000-0  17746-3 0  9996","CLASSIFICATION_TYPE":"U","COUNTRY_CODE":"US","ARG_OF_PERICENTER":"38.0191","PERIOD":"95.438","FILE":"3485745","OBJECT_ID":"2022-001E","REV_AT_EPOCH":"2369","REF_FRAME":"TEME","DECAY_DATE":null},{"OBJECT_ID":"2022-001F","REV_AT_EPOCH":"2367","DECAY_DATE":null,"REF_FRAME":"TEME","CLASSIFICATION_TYPE":"U","COUNTRY_CODE":"US","FILE":"3485745","ARG_OF_PERICENTER":"41.1510","PERIOD":"95.437","RCS_SIZE":"LARGE","SEMIMAJOR_AXIS":"6917.851","RA_OF_ASC_NODE":"190.7437","MEAN_MOTION_DOT":"0.00000995","EPOCH":"2022-06-08T08:46:48.413568","ELEMENT_SET_NO":"999","MEAN_MOTION_DDOT":"0.0000000000000","TLE_LINE1":"1 50808U 22001F   22159.36583812  .00000995  00000-0  80602-4 0  9994","BSTAR":"0.00008060200000","OBJECT_NAME":"STARLINK-3355","APOAPSIS":"541.537","MEAN_ELEMENT_THEORY":"SGP4","ECCENTRICITY":"0.00026320","MEAN_MOTION":"15.08849644","PERIAPSIS":"537.895","MEAN_ANOMALY":"318.9680","NORAD_CAT_ID":"50808","TIME_SYSTEM":"UTC","SITE":"AFETR","GP_ID":"205636542","TLE_LINE2":"2 50808  53.2158 190.7437 0002632  41.1510 318.9680 15.08849644 23675","CENTER_NAME":"EARTH","OBJECT_TYPE":"PAYLOAD","INCLINATION":"53.2158","LAUNCH_DATE":"2022-01-06","EPHEMERIS_TYPE":"0"},{"EPHEMERIS_TYPE":"0","LAUNCH_DATE":"2022-01-06","OBJECT_TYPE":"PAYLOAD","INCLINATION":"53.2149","TLE_LINE2":"2 50809  53.2149 190.1336 0002374  38.1308 321.9852 15.08841361 23697","CENTER_NAME":"EARTH","SITE":"AFETR","GP_ID":"205637291","TIME_SYSTEM":"UTC","NORAD_CAT_ID":"50809","PERIAPSIS":"538.099","MEAN_ANOMALY":"321.9852","ECCENTRICITY":"0.00023740","MEAN_MOTION":"15.08841361","APOAPSIS":"541.384","MEAN_ELEMENT_THEORY":"SGP4","BSTAR":"0.00001773900000","OBJECT_NAME":"STARLINK-3232","TLE_LINE1":"1 50809U 22001G   22159.50198827 -.00000006  00000-0  17739-4 0  9994","RCS_SIZE":"LARGE","RA_OF_ASC_NODE":"190.1336","SEMIMAJOR_AXIS":"6917.876","MEAN_MOTION_DOT":"-0.00000006","EPOCH":"2022-06-08T12:02:51.786528","ELEMENT_SET_NO":"999","MEAN_MOTION_DDOT":"0.0000000000000","COUNTRY_CODE":"US","FILE":"3485745","ARG_OF_PERICENTER":"38.1308","PERIOD":"95.437","CLASSIFICATION_TYPE":"U","REV_AT_EPOCH":"2369","DECAY_DATE":null,"REF_FRAME":"TEME","OBJECT_ID":"2022-001G"},{"TLE_LINE2":"2 50810  53.2186 190.1731 0002256  39.2562 320.8593 15.08838487 23697","CENTER_NAME":"EARTH","SITE":"AFETR","GP_ID":"205636041","LAUNCH_DATE":"2022-01-06","EPHEMERIS_TYPE":"0","OBJECT_TYPE":"PAYLOAD","INCLINATION":"53.2186","PERIAPSIS":"538.189","MEAN_ANOMALY":"320.8593","ECCENTRICITY":"0.00022560","MEAN_MOTION":"15.08838487","TIME_SYSTEM":"UTC","NORAD_CAT_ID":"50810","TLE_LINE1":"1 50810U 22001H   22159.49463634 -.00000509  00000-0 -13879-4 0  9995","RA_OF_ASC_NODE":"190.1731","RCS_SIZE":"LARGE","SEMIMAJOR_AXIS":"6917.885","EPOCH":"2022-06-08T11:52:16.579776","MEAN_MOTION_DOT":"-0.00000509","ELEMENT_SET_NO":"999","MEAN_MOTION_DDOT":"0.0000000000000","APOAPSIS":"541.311","MEAN_ELEMENT_THEORY":"SGP4","BSTAR":"-0.00001387900000","OBJECT_NAME":"STARLINK-3348","REV_AT_EPOCH":"2369","DECAY_DATE":null,"REF_FRAME":"TEME","OBJECT_ID":"2022-001H","COUNTRY_CODE":"US","FILE":"3485745","ARG_OF_PERICENTER":"39.2562","PERIOD":"95.438","CLASSIFICATION_TYPE":"U"},{"EPHEMERIS_TYPE":"0","LAUNCH_DATE":"2022-01-06","INCLINATION":"53.2201","OBJECT_TYPE":"PAYLOAD","CENTER_NAME":"EARTH","TLE_LINE2":"2 50811  53.2201 190.7925 0002526  37.6536 322.4633 15.08833841 23670","GP_ID":"205635791","SITE":"AFETR","TIME_SYSTEM":"UTC","NORAD_CAT_ID":"50811","MEAN_ANOMALY":"322.4633","PERIAPSIS":"538.017","MEAN_MOTION":"15.08833841","ECCENTRICITY":"0.00025260","APOAPSIS":"541.512","MEAN_ELEMENT_THEORY":"SGP4","OBJECT_NAME":"STARLINK-3347","BSTAR":"0.00004734800000","TLE_LINE1":"1 50811U 22001J   22159.35480295  .00000465  00000-0  47348-4 0  9990","MEAN_MOTION_DDOT":"0.0000000000000","RCS_SIZE":"LARGE","RA_OF_ASC_NODE":"190.7925","SEMIMAJOR_AXIS":"6917.899","EPOCH":"2022-06-08T08:30:54.974880","MEAN_MOTION_DOT":"0.00000465","ELEMENT_SET_NO":"999","FILE":"3485745","ARG_OF_PERICENTER":"37.6536","PERIOD":"95.438","COUNTRY_CODE":"US","CLASSIFICATION_TYPE":"U","REF_FRAME":"TEME","DECAY_DATE":null,"REV_AT_EPOCH":"2367","OBJECT_ID":"2022-001J"},{"NORAD_CAT_ID":"50812","TIME_SYSTEM":"UTC","MEAN_MOTION":"15.08832907","ECCENTRICITY":"0.00022120","PERIAPSIS":"538.237","MEAN_ANOMALY":"317.5292","INCLINATION":"53.2166","OBJECT_TYPE":"PAYLOAD","LAUNCH_DATE":"2022-01-06","EPHEMERIS_TYPE":"0","GP_ID":"205637043","SITE":"AFETR","CENTER_NAME":"EARTH","TLE_LINE2":"2 50812  53.2166 190.0573 0002212  42.5872 317.5292 15.08832907 23693","CLASSIFICATION_TYPE":"U","PERIOD":"95.438","ARG_OF_PERICENTER":"42.5872","FILE":"3485745","COUNTRY_CODE":"US","OBJECT_ID":"2022-001K","DECAY_DATE":null,"REF_FRAME":"TEME","REV_AT_EPOCH":"2369","OBJECT_NAME":"STARLINK-3338","BSTAR":"-0.00005348800000","MEAN_ELEMENT_THEORY":"SGP4","APOAPSIS":"541.297","MEAN_MOTION_DDOT":"0.0000000000000","ELEMENT_SET_NO":"999","RCS_SIZE":"LARGE","SEMIMAJOR_AXIS":"6917.902","MEAN_MOTION_DOT":"-0.00001139","EPOCH":"2022-06-08T12:25:26.978304","RA_OF_ASC_NODE":"190.0573","TLE_LINE1":"1 50812U 22001K   22159.51767336 -.00001139  00000-0 -53488-4 0  9996"},{"APOAPSIS":"541.573","MEAN_ELEMENT_THEORY":"SGP4","BSTAR":"0.00008791800000","OBJECT_NAME":"STARLINK-3349","TLE_LINE1":"1 50813U 22001L   22159.55079185  .00001111  00000-0  87918-4 0  9992","RCS_SIZE":"LARGE","RA_OF_ASC_NODE":"189.9126","SEMIMAJOR_AXIS":"6917.881","MEAN_MOTION_DOT":"0.00001111","EPOCH":"2022-06-08T13:13:08.415840","ELEMENT_SET_NO":"999","MEAN_MOTION_DDOT":"0.0000000000000","COUNTRY_CODE":"US","FILE":"3485745","ARG_OF_PERICENTER":"35.0158","PERIOD":"95.438","CLASSIFICATION_TYPE":"U","REV_AT_EPOCH":"2370","DECAY_DATE":null,"REF_FRAME":"TEME","OBJECT_ID":"2022-001L","EPHEMERIS_TYPE":"0","LAUNCH_DATE":"2022-01-06","OBJECT_TYPE":"PAYLOAD","INCLINATION":"53.2205","TLE_LINE2":"2 50813  53.2205 189.9126 0002642  35.0158 325.1008 15.08839868 23705","CENTER_NAME":"EARTH","SITE":"AFETR","GP_ID":"205636791","TIME_SYSTEM":"UTC","NORAD_CAT_ID":"50813","MEAN_ANOMALY":"325.1008","PERIAPSIS":"537.918","ECCENTRICITY":"0.00026420","MEAN_MOTION":"15.08839868"},{"MEAN_MOTION_DDOT":"0.0000000000000","ELEMENT_SET_NO":"999","RCS_SIZE":"LARGE","RA_OF_ASC_NODE":"200.5841","SEMIMAJOR_AXIS":"6917.878","MEAN_MOTION_DOT":"-0.00000686","EPOCH":"2022-06-08T09:33:09.713376","TLE_LINE1":"1 50814U 22001M   22159.39802909 -.00000686  00000-0 -24997-4 0  9999","OBJECT_NAME":"STARLINK-3324","BSTAR":"-0.00002499700000","MEAN_ELEMENT_THEORY":"SGP4","APOAPSIS":"541.030","OBJECT_ID":"2022-001M","REF_FRAME":"TEME","DECAY_DATE":null,"REV_AT_EPOCH":"2354","CLASSIFICATION_TYPE":"U","ARG_OF_PERICENTER":"50.0631","PERIOD":"95.437","FILE":"3485745","COUNTRY_CODE":"US","GP_ID":"205635541","SITE":"AFETR","CENTER_NAME":"EARTH","TLE_LINE2":"2 50814  53.2174 200.5841 0001861  50.0631 310.0524 15.08840920 23549","INCLINATION":"53.2174","OBJECT_TYPE":"PAYLOAD","LAUNCH_DATE":"2022-01-06","EPHEMERIS_TYPE":"0","MEAN_MOTION":"15.08840920","ECCENTRICITY":"0.00018610","PERIAPSIS":"538.455","MEAN_ANOMALY":"310.0524","NORAD_CAT_ID":"50814","TIME_SYSTEM":"UTC"}];
